[{"OBJECT_NAME":"STARLINK-36189","OBJECT_ID":"2025-293H","EPOCH":"2026-03-09T11:58:18.945696","MEAN_MOTION":14.98332853,"ECCENTRICITY":0.00031517,"INCLINATION":70.0008,"RA_OF_ASC_NODE":94.761,"ARG_OF_PERICENTER":268.6465,"MEAN_ANOMALY":91.4333,"EPHEMERIS_TYPE":0,"CLASSIFICATION_TYPE":"U","NORAD_CAT_ID":67010,"ELEMENT_SET_NO":999,"REV_AT_EPOCH":1486,"BSTAR":0.00033521818,"MEAN_MOTION_DOT":3.909e-5,"MEAN_MOTION_DDOT":0},{"OBJECT_NAME":"ATLAS 28E DEB","OBJECT_ID":"1990-031F","EPOCH":"2026-03-09T23:20:22.354944","MEAN_MOTION":14.8907054,"ECCENTRICITY":0.00492653,"INCLINATION":89.9045,"RA_OF_ASC_NODE":245.9973,"ARG_OF_PERICENTER":224.0293,"MEAN_ANOMALY":135.7008,"EPHEMERIS_TYPE":0,"CLASSIFICATION_TYPE":"U","NORAD_CAT_ID":20565,"ELEMENT_SET_NO":999,"REV_AT_EPOCH":36885,"BSTAR":0.00032450895,"MEAN_MOTION_DOT":3.143e-5,"MEAN_MOTION_DDOT":0}]
